#dP2021  1 19  0  0  0.00000000      96 __u+U ITR00 EXT  IAC
## 2141 172800.00000000   900.00000000 59233 0.0000000000000
+  115   C06C07C08C09C10C11C12C13C14C16C19C20C21C22C23C24C25
+        C26C27C28C29C30C32C33C34C35C36C37C38C39C40C43C44C45
+        C46E01E02E03E04E05E07E08E09E11E12E13E14E15E18E19E21
+        E24E25E26E27E30E31E33E36G01G02G03G04G05G06G07G08G09
+        G10G11G12G13G14G15G16G17G18G19G20G21G22G23G24G25G26
+        G27G28G29G30G31G32J01J02J03R01R02R03R04R05R07R08R09
+        R11R12R13R14R15R16R17R18R19R20R21R22R24  0  0  0  0
++         9  9 10 11 11  9 10 11  9  8  8  9  9 10 10  8  7
++         9  8  9  8  9  9 10  9  9  6 10 11 10 10  9 10  9
++        13  7  8  9  7  8  8  9  8  8  9  9  8  8  8  9  7
++         9  8  8  7  8  7  8  9  7  7  7  7  7  7  7  9  8
++         7  8  8  8  7  8  8  8  7  8  8  7  7  7  8  8  6
++         7  8  8  7  9  8 10  9  8  8  8  8  8  8  8  9  9
++         8  7  9  8  6  8  9  8  8  9  9 10  9  0  0  0  0
%c M  cc GPS ccc cccc cccc cccc cccc ccccc ccccc ccccc ccccc
%c cc cc ccc ccc cccc cccc cccc cccc ccccc ccccc ccccc ccccc
%f  0.0000000  0.000000000  0.00000000000  0.000000000000000
%f  0.0000000  0.000000000  0.00000000000  0.000000000000000
%i    0    0    0    0      0      0      0      0         0
%i    0    0    0    0      0      0      0      0         0
/* IAC                                ULTRA-RAPID PREDICTION
/* S/V CLOCKS ARE ALIGNED TO GNSS TIME                      
/* G:C1WC2W R:C1PC2P E:C1XC5X C:C2IC6I J:C1CC2S             
/* PCV:IGS14_2134 OL/AL:FES2004  NONE     YN ORB:CoN CLK:CoN
*  2021 01 19 18 45  0.00000000
PC06 -23784.685688  32265.401608 -13421.807243     18.666030
PC07  -8157.631669  35251.096082 -20953.345929   -242.937783
PC08 -12311.508973  18187.429198  36062.125248   -913.276329
PC09 -10143.017752  31306.886022 -26321.327339    792.315559
PC10   1666.300367  40333.634039 -11145.704625   -101.197953
PC11  18955.487106 -18147.967330  -9484.044108   -897.419023
PC12  25242.944639  -8776.921480   8110.304944    740.431877
PC13   4261.370359  24419.895616  34267.812789    104.875012
PC14   9092.996374 -22416.628463 -13934.028212    -60.077917
PC16 -22368.546752  32597.431508 -14884.355059   -665.272810
PC19  -3094.532556  27165.246247   5581.843119    696.838577
PC20 -13005.305077  15277.358715  19398.629023   -909.861358
PC21  15591.649430   6297.014007 -22254.288882   -799.898619
PC22   8875.777598  23609.091206 -11916.465800   -850.028948
PC23 -17353.471252 -18796.809992  11136.596617   -880.226264
PC24  19228.390102  -5253.979372  19531.142232   -744.539372
PC25    241.069843 -17414.181207  21792.799251   -903.154480
PC26  25842.364349   8262.235346   6607.389519    960.628475
PC27 -22995.223269    812.246429 -15815.587266    469.123232
PC28  -8563.677626 -13355.643518 -22949.740349   -119.783208
PC29 -10042.394375  20052.579084  16607.782629    340.787648
PC30 -23491.843219  15085.793303    123.664132    433.410316
PC32 -15661.409356  -6218.965409  22255.987267   -884.764337
PC33   2989.799237 -27175.628500  -5622.507084   -922.827141
PC34  23263.320710 -15369.963013   -770.202606   -759.453339
PC35   8749.888258  13308.229369  22915.497217   -458.039467
PC36   -954.605213  17285.420608 -21868.525792   -773.363506
PC37 -25590.880221  -9421.087546  -5850.774822   -860.796099
PC38 -11304.360635  21131.745744  34706.493295    124.877255
PC39 -18813.192325  34141.665384 -16235.372117     27.583162
PC40  -4097.648979  38674.846966 -16091.812064    122.895507
PC43  10505.152334 -20087.258262 -16260.033349   -559.416922
PC44  22880.426526  -1310.992699  15897.104112     -5.025649
PC45  17495.876619  18697.595405 -11126.011932    339.566704
PC46 -18504.273474   5901.337661 -20020.320073    444.678703
PE01  11289.325633 -12442.494699  24368.843991  -1028.210782
PE02 -11185.208073  12575.323093 -24353.769648    192.219690
PE03 -17492.622181  22103.753541   9010.781224   -389.155051
PE04   5744.953442 -27520.508219   9258.209278   -692.207819
PE05 -19155.726327   3635.984268  22267.821377   -311.573509
PE07   9626.119254  16775.440691 -22406.036539   -489.810525
PE08  -5412.038681  27479.693136  -9569.602423   6059.614269
PE09  -9684.937667 -16552.909275  22548.310081   5793.686416
PE11 -19073.664602 -11215.172566 -19667.519864   6445.605558
PE12   3044.975066 -16381.741500 -24454.261291   5398.644020
PE13  18728.274221  11284.665294  19962.248699    410.546976
PE14  15618.264780 -24725.928387  -5526.362485  -1300.399439
PE15  -2948.726206  16327.721166  24527.232203    833.474576
PE18 -21428.070596  15659.976259  -6514.917531  -1421.291546
PE19  18240.624227 -20518.433327 -11059.781207    182.480129
PE21  20899.485609   6787.217666  19835.237286   -643.760207
PE24 -18287.210259 -23054.310292  -3058.790424   -698.271017
PE25 -20928.717646  -6946.876270 -19735.805211   -524.672367
PE26  29445.929594   -647.932962   2983.869618   2246.526706
PE27  18674.351670  22687.952402   3639.552465     47.718617
PE30   4719.291042  24996.442146 -15162.742246   3249.813448
PE31  -5473.908189 -25153.238932  14609.985432   -477.515682
PE33  22873.241316 -11749.139081 -14642.836927   -465.004264
PE36 -29372.704877    398.922294  -3646.545747    452.056306
PG01 -15675.964229 -13680.472313 -16945.265214    777.356192
PG02  -8543.199124  14362.466417  21307.444426   -567.775317
PG03 -13186.000867 -22466.547381   5370.831240    -60.544206
PG04  -6392.034851 -15156.914394  20844.793151   -173.982130
PG05    972.182843  23341.590690  12314.133735    -31.430229
PG06 -21529.443144   6618.632099  14178.891344     -4.469687
PG07 -25591.089699  -6907.498548   4443.578360     27.710222
PG08     57.084653 -19995.377941 -17325.330586     -7.200858
PG09 -15806.985457  -3717.742120  20956.839363   -314.447821
PG10  15049.860471  -2571.944881 -21650.531993    -42.800970
PG11  -6063.871863 -15279.406756 -21307.602867    -48.482893
PG12   9398.529879  24853.874200   1714.728622     10.700264
PG13 -10716.546610  21557.217185 -11221.816740     87.684004
PG14 -15799.213510    312.633475 -21357.653909     87.839561
PG15   3519.395597  19674.551343 -17679.429593   -175.225139
PG16   2280.923238 -22638.496467  13069.161863   -267.484504
PG17 -20523.268230  12362.789075 -11013.707869    382.286336
PG18  26057.401574   5114.865358   1406.127130    342.370721
PG19 -20202.601236  16588.837670  -4707.582068    -49.773335
PG20  19149.347202   9113.243239 -16210.862412    525.084419
PG21  -7984.131735 -14673.231006 -20010.812120     88.224648
PG22 -10098.248436 -24419.357172  -3254.146898   -695.307680
PG23  17513.457275   8776.151353 -17977.313324    116.644716
PG24  11443.902271  14925.729481 -19131.569804      3.454631
PG25  16530.298910  16034.802584  13219.448211     63.086715
PG26   9085.884940 -14857.809266  19936.524406     32.343366
PG27  11092.819392 -22745.018674  -7578.525328    -59.325015
PG28 -14188.624138   3671.051338 -21583.593099    627.474153
PG29  14547.880895   5212.307108  21570.456819   -278.895724
PG30 -25725.827838    944.238053  -6949.025222   -371.508777
PG31  20128.710024  -7925.445161  15639.107526    -94.896896
PG32  19931.808042 -13611.567950 -10802.158440     15.112317
PJ01 -28846.751795  25963.612837  21419.096354   -337.055702
PJ02 -22317.354487  18033.202674 -26413.630680      0.884447
PJ03 -28375.698329  30784.314993   9676.178146     -0.176593
PR01 -11042.513679   -979.605549  22970.549231     73.718688
PR02  -9576.860469  19800.200807  13010.033881    463.529323
PR03  -2151.690244  25115.417985  -4053.880425     29.428090
PR04   6233.275430  16148.231356 -18717.481434     70.643534
PR05  11155.527856  -1768.328721 -22862.216211     65.007595
PR07   1792.513868 -24968.891930   4805.156910    -42.213944
PR08  -6392.876491 -16091.688249  18771.644194    -56.942330
PR09   8653.049541  -7449.484526  22820.207149     19.470350
PR11 -19154.567858 -16660.250973   2538.745746      4.368268
PR12 -19633.510229  -6917.737760 -14700.408768    197.995282
PR13  -8892.645332   6892.720209 -22911.373320    -49.542837
PR14   7467.113979  16934.266760 -17542.402964     60.026062
PR15  19043.786703  16841.851407  -2122.443290    105.810710
PR16  19629.948880   5836.140193  15271.935605    -10.394871
PR17  -5463.407703  12512.735247  21553.137238    392.661138
PR18  11857.317261   6062.309236  21765.020907     63.707021
PR19  22872.538760  -2637.157343  10989.763231   -128.574026
PR20  21074.002789 -11290.061007  -8816.791866   -431.506246
PR21   4415.002680 -12194.001033 -21962.880311   -181.564430
PR22 -13004.946891  -5412.182074 -21297.430845    -93.371755
PR24 -20464.872089  11940.001607   9458.017825     28.384666
EOF
